*******************************************************************************
JPL/HORIZONS              3758 Karttunen (1983 WP)         2023-Sep-04 11:25:22
Rec #:    3758 (+COV) Soln.date: 2023-Aug-23_13:19:59   # obs: 5302 (1977-2023)
 
IAU76/J2000 helio. ecliptic osc. elements (au, days, deg., period=Julian yrs):
 
  EPOCH=  2458131.5 ! 2018-Jan-13.00 (TDB)         Residual RMS= .1957
   EC= .1137793626174107   QR= 2.33041199726902    TP= 2458373.4993006089
   OM= 80.9410646751124    W=  56.32352777594668   IN= 14.14106978482554
   A= 2.629607006390397    MA= 304.0652228153594   ADIST= 2.928802015511773
   PER= 4.26427            N= .231136111           ANGMOM= .027713883
   DAN= 2.44153            DDN= 2.77035            L= 136.4462981
   B= 11.7306145           MOID= 1.37580001        TP= 2018-Sep-11.9993006089
 
Asteroid physical parameters (km, seconds, rotational period in hours):
   GM= n.a.                RAD= 3.906              ROTPER= 12.50101
   H= 12.84                G= .150                 B-V= n.a.
                           ALBEDO= .241            STYP= n.a.

ASTEROID comments: 
1: soln ref.= JPL#48, OCC=0
2: source=ORB
*******************************************************************************


*******************************************************************************
Ephemeris / API_USER Mon Sep  4 11:25:22 2023 Pasadena, USA      / Horizons
*******************************************************************************
Target body name: 3758 Karttunen (1983 WP)        {source: JPL#48}
Center body name: Solar System Barycenter (0)     {source: DE441}
Center-site name: BODY CENTER
*******************************************************************************
Start time      : A.D. 2023-Aug-12 00:00:00.0000 TDB
Stop  time      : A.D. 2023-Aug-13 00:00:00.0000 TDB
Step-size       : 2880 minutes
*******************************************************************************
Center geodetic : 0.0, 0.0, 0.0                   {E-lon(deg),Lat(deg),Alt(km)}
Center cylindric: 0.0, 0.0, 0.0                   {E-lon(deg),Dxy(km),Dz(km)}
Center radii    : (undefined)
Small perturbers: Yes                             {source: SB441-N16}
Output units    : KM-S
Calendar mode   : Mixed Julian/Gregorian
Output type     : GEOMETRIC cartesian states
Output format   : 2 (position and velocity)
Reference frame : Ecliptic of J2000.0
*******************************************************************************
Initial IAU76/J2000 heliocentric ecliptic osculating elements (au, days, deg.):
  EPOCH=  2458131.5 ! 2018-Jan-13.00 (TDB)         Residual RMS= .1957         
   EC= .1137793626174107   QR= 2.33041199726902    TP= 2458373.4993006089      
   OM= 80.9410646751124    W=  56.32352777594668   IN= 14.14106978482554       
  Equivalent ICRF heliocentric cartesian coordinates (au, au/d):
   X= 8.493592650492817E-01  Y= 2.189655761352706E+00  Z= 8.199664019795743E-01
  VX=-1.050376959982324E-02 VY= 1.451429686605636E-03 VZ= 3.597119778882782E-03
Asteroid physical parameters (km, seconds, rotational period in hours):        
   GM= n.a.                RAD= 3.906              ROTPER= 12.50101            
   H= 12.84                G= .150                 B-V= n.a.                   
                           ALBEDO= .241            STYP= n.a.                  
*******************************************************************************
JDTDB
   X     Y     Z
   VX    VY    VZ
*******************************************************************************
$$SOE
2460168.500000000 = A.D. 2023-Aug-12 00:00:00.0000 TDB 
 X =-3.308881006647466E+08 Y =-1.503619875801904E+08 Z = 7.589019271505462E+07
 VX= 5.749308049100043E+00 VY=-1.851251434597388E+01 VZ=-2.167468034948221E+00
$$EOE
*******************************************************************************
 
TIME

  Barycentric Dynamical Time ("TDB" or T_eph) output was requested. This
continuous coordinate time is equivalent to the relativistic proper time
of a clock at rest in a reference frame co-moving with the solar system
barycenter but outside the system's gravity well. It is the independent
variable in the solar system relativistic equations of motion.

  TDB runs at a uniform rate of one SI second per second and is independent
of irregularities in Earth's rotation.
 
CALENDAR SYSTEM

  Mixed calendar mode was active such that calendar dates after AD 1582-Oct-15
(if any) are in the modern Gregorian system. Dates prior to 1582-Oct-5 (if any)
are in the Julian calendar system, which is automatically extended for dates
prior to its adoption on 45-Jan-1 BC.  The Julian calendar is useful for
matching historical dates. The Gregorian calendar more accurately corresponds
to the Earth's orbital motion and seasons. A "Gregorian-only" calendar mode is
available if such physical events are the primary interest.

REFERENCE FRAME AND COORDINATES

  Ecliptic at the standard reference epoch

    Reference epoch: J2000.0
    X-Y plane: adopted Earth orbital plane at the reference epoch
               Note: IAU76 obliquity of 84381.448 arcseconds wrt ICRF X-Y plane
    X-axis   : ICRF
    Z-axis   : perpendicular to the X-Y plane in the directional (+ or -) sense
               of Earth's north pole at the reference epoch.

  Symbol meaning:

    JDTDB    Julian Day Number, Barycentric Dynamical Time
      X      X-component of position vector (km)
      Y      Y-component of position vector (km)
      Z      Z-component of position vector (km)
      VX     X-component of velocity vector (km/sec)                           
      VY     Y-component of velocity vector (km/sec)                           
      VZ     Z-component of velocity vector (km/sec)                           

ABERRATIONS AND CORRECTIONS

 Geometric state vectors have NO corrections or aberrations applied.

Computations by ...

    Solar System Dynamics Group, Horizons On-Line Ephemeris System
    4800 Oak Grove Drive, Jet Propulsion Laboratory
    Pasadena, CA  91109   USA

    General site: https://ssd.jpl.nasa.gov/
    Mailing list: https://ssd.jpl.nasa.gov/email_list.html
    System news : https://ssd.jpl.nasa.gov/horizons/news.html
    User Guide  : https://ssd.jpl.nasa.gov/horizons/manual.html
    Connect     : browser        https://ssd.jpl.nasa.gov/horizons/app.html#/x
                  API            https://ssd-api.jpl.nasa.gov/doc/horizons.html
                  command-line   telnet ssd.jpl.nasa.gov 6775
                  e-mail/batch   https://ssd.jpl.nasa.gov/ftp/ssd/hrzn_batch.txt
                  scripts        https://ssd.jpl.nasa.gov/ftp/ssd/SCRIPTS
    Author      : Jon.D.Giorgini@jpl.nasa.gov
*******************************************************************************
